{"type": "FeatureCollection", "features": [ {"type": "Feature", "properties": {"norad_id": 66959, "name": "STARLINK-35887", "group": "last-30-days", "lat": -5.424260423831497, "lon": 76.98169804528942, "alt_km": 388.64453908556425, "timestamp": "2025-12-26T14:28:46.397821+00:00", "meta": {"OBJECT_NAME": "STARLINK-35887", "OBJECT_ID": "2025-288A", "EPOCH": "2025-12-26T06:00:02.999808", "MEAN_MOTION": 15.61210507, "ECCENTRICITY": 0.0001063, "INCLINATION": 42.9999, "RA_OF_ASC_NODE": 84.928, "ARG_OF_PERICENTER": 287.0611, "MEAN_ANOMALY": 238.0622, "EPHEMERIS_TYPE": 0, "CLASSIFICATION_TYPE": "U", "NORAD_CAT_ID": 66959, "ELEMENT_SET_NO": 999, "REV_AT_EPOCH": 400, "BSTAR": -0.025686238, "MEAN_MOTION_DOT": -0.01967553, "MEAN_MOTION_DDOT": 0}, "tle": {"line1": "1 66959U 25288A   25360.25003472 -.01967553  00000+0 -25686-1 0  9994", "line2": "2 66959  42.9999  84.9280 0001063 287.0611 238.0622 15.61210507  4000"}}, "geometry": {"type": "Point", "coordinates": [76.98169804528942, -5.424260423831497]}}, {"type": "Feature", "properties": {"norad_id": 66960, "name": "STARLINK-35879", "group": "last-30-days", "lat": -4.123102982360177, "lon": 78.38810377897661, "alt_km": 388.68411649584687, "timestamp": "2025-12-26T14:28:46.397835+00:00", "meta": {"OBJECT_NAME": "STARLINK-35879", "OBJECT_ID": "2025-288B", "EPOCH": "2025-12-26T06:00:02.999808", "MEAN_MOTION": 15.6121135, "ECCENTRICITY": 0.00010121, "INCLINATION": 43.0002, "RA_OF_ASC_NODE": 84.9225, "ARG_OF_PERICENTER": 277.2256, "MEAN_ANOMALY": 249.8128, "EPHEMERIS_TYPE": 0, "CLASSIFICATION_TYPE": "U", "NORAD_CAT_ID": 66960, "ELEMENT_SET_NO": 999, "REV_AT_EPOCH": 400, "BSTAR": -0.025691934, "MEAN_MOTION_DOT": -0.01967958, "MEAN_MOTION_DDOT": 0}, "tle": {"line1": "1 66960U 25288B   25360.25003472 -.01967958  00000+0 -25692-1 0  9992", "line2": "2 66960  43.0002  84.9225 0001012 277.2256 249.8128 15.61211350  4006"}}, "geometry": {"type": "Point", "coordinates": [78.38810377897661, -4.123102982360177]}}, {"type": "Feature", "properties": {"norad_id": 66961, "name": "STARLINK-35761", "group": "last-30-days", "lat": -2.8167174742926964, "lon": 79.79386442603781, "alt_km": 388.54478779589044, "timestamp": "2025-12-26T14:28:46.397846+00:00", "meta": {"OBJECT_NAME": "STARLINK-35761", "OBJECT_ID": "2025-288C", "EPOCH": "2025-12-26T06:00:02.999808", "MEAN_MOTION": 15.61207753, "ECCENTRICITY": 9.717e-05, "INCLINATION": 43.0001, "RA_OF_ASC_NODE": 84.9181, "ARG_OF_PERICENTER": 273.6808, "MEAN_ANOMALY": 255.2806, "EPHEMERIS_TYPE": 0, "CLASSIFICATION_TYPE": "U", "NORAD_CAT_ID": 66961, "ELEMENT_SET_NO": 999, "REV_AT_EPOCH": 400, "BSTAR": -0.025632561, "MEAN_MOTION_DOT": -0.01963692, "MEAN_MOTION_DDOT": 0}, "tle": {"line1": "1 66961U 25288C   25360.25003472 -.01963692  00000+0 -25633-1 0  9999", "line2": "2 66961  43.0001  84.9181 0000971 273.6808 255.2806 15.61207753  4009"}}, "geometry": {"type": "Point", "coordinates": [79.79386442603781, -2.8167174742926964]}}, {"type": "Feature", "properties": {"norad_id": 66962, "name": "STARLINK-35874", "group": "last-30-days", "lat": -1.5116271322212402, "lon": 81.19245254903429, "alt_km": 388.4217446482735, "timestamp": "2025-12-26T14:28:46.397856+00:00", "meta": {"OBJECT_NAME": "STARLINK-35874", "OBJECT_ID": "2025-288D", "EPOCH": "2025-12-26T06:00:02.999808", "MEAN_MOTION": 15.61212215, "ECCENTRICITY": 0.00010219, "INCLINATION": 43.0001, "RA_OF_ASC_NODE": 84.9129, "ARG_OF_PERICENTER": 276.2488, "MEAN_ANOMALY": 254.6251, "EPHEMERIS_TYPE": 0, "CLASSIFICATION_TYPE": "U", "NORAD_CAT_ID": 66962, "ELEMENT_SET_NO": 999, "REV_AT_EPOCH": 400, "BSTAR": -0.025708331, "MEAN_MOTION_DOT": -0.01969127, "MEAN_MOTION_DDOT": 0}, "tle": {"line1": "1 66962U 25288D   25360.25003472 -.01969127  00000+0 -25708-1 0  9992", "line2": "2 66962  43.0001  84.9129 0001021 276.2488 254.6251 15.61212215  4008"}}, "geometry": {"type": "Point", "coordinates": [81.19245254903429, -1.5116271322212402]}}, {"type": "Feature", "properties": {"norad_id": 66963, "name": "STARLINK-36133", "group": "last-30-days", "lat": -0.2049389693025734, "lon": 82.59060269384183, "alt_km": 388.2901795128091, "timestamp": "2025-12-26T14:28:46.397868+00:00", "meta": {"OBJECT_NAME": "STARLINK-36133", "OBJECT_ID": "2025-288E", "EPOCH": "2025-12-26T06:00:02.999808", "MEAN_MOTION": 15.61210018, "ECCENTRICITY": 0.00010653, "INCLINATION": 43.0001, "RA_OF_ASC_NODE": 84.9082, "ARG_OF_PERICENTER": 274.9477, "MEAN_ANOMALY": 257.8427, "EPHEMERIS_TYPE": 0, "CLASSIFICATION_TYPE": "U", "NORAD_CAT_ID": 66963, "ELEMENT_SET_NO": 999, "REV_AT_EPOCH": 400, "BSTAR": -0.025643062, "MEAN_MOTION_DOT": -0.01964616, "MEAN_MOTION_DDOT": 0}, "tle": {"line1": "1 66963U 25288E   25360.25003472 -.01964616  00000+0 -25643-1 0  9999", "line2": "2 66963  43.0001  84.9082 0001065 274.9477 257.8427 15.61210018  4007"}}, "geometry": {"type": "Point", "coordinates": [82.59060269384183, -0.2049389693025734]}}, {"type": "Feature", "properties": {"norad_id": 66964, "name": "STARLINK-36104", "group": "last-30-days", "lat": 1.1014989237754615, "lon": 83.98772041704865, "alt_km": 388.1005661980371, "timestamp": "2025-12-26T14:28:46.397878+00:00", "meta": {"OBJECT_NAME": "STARLINK-36104", "OBJECT_ID": "2025-288F", "EPOCH": "2025-12-26T06:00:02.999808", "MEAN_MOTION": 15.6121059, "ECCENTRICITY": 0.00010594, "INCLINATION": 43.0001, "RA_OF_ASC_NODE": 84.9031, "ARG_OF_PERICENTER": 277.3502, "MEAN_ANOMALY": 257.3555, "EPHEMERIS_TYPE": 0, "CLASSIFICATION_TYPE": "U", "NORAD_CAT_ID": 66964, "ELEMENT_SET_NO": 999, "REV_AT_EPOCH": 400, "BSTAR": -0.025634589, "MEAN_MOTION_DOT": -0.0196408, "MEAN_MOTION_DDOT": 0}, "tle": {"line1": "1 66964U 25288F   25360.25003472 -.01964080  00000+0 -25635-1 0  9996", "line2": "2 66964  43.0001  84.9031 0001059 277.3502 257.3555 15.61210590  4003"}}, "geometry": {"type": "Point", "coordinates": [83.98772041704865, 1.1014989237754615]}}, {"type": "Feature", "properties": {"norad_id": 66965, "name": "STARLINK-36067", "group": "last-30-days", "lat": 2.4091483117039054, "lon": 85.38899614158545, "alt_km": 387.9763343337354, "timestamp": "2025-12-26T14:28:46.397890+00:00", "meta": {"OBJECT_NAME": "STARLINK-36067", "OBJECT_ID": "2025-288G", "EPOCH": "2025-12-26T06:00:02.999808", "MEAN_MOTION": 15.61208189, "ECCENTRICITY": 8.891e-05, "INCLINATION": 43, "RA_OF_ASC_NODE": 84.8989, "ARG_OF_PERICENTER": 275.5083, "MEAN_ANOMALY": 261.1206, "EPHEMERIS_TYPE": 0, "CLASSIFICATION_TYPE": "U", "NORAD_CAT_ID": 66965, "ELEMENT_SET_NO": 999, "REV_AT_EPOCH": 400, "BSTAR": -0.025621137, "MEAN_MOTION_DOT": -0.01962897, "MEAN_MOTION_DDOT": 0}, "tle": {"line1": "1 66965U 25288G   25360.25003472 -.01962897  00000+0 -25621-1 0  9996", "line2": "2 66965  43.0000  84.8989 0000889 275.5083 261.1206 15.61208189  4005"}}, "geometry": {"type": "Point", "coordinates": [85.38899614158545, 2.4091483117039054]}}, {"type": "Feature", "properties": {"norad_id": 66966, "name": "STARLINK-36139", "group": "last-30-days", "lat": 3.7134084470648747, "lon": 86.79006137849224, "alt_km": 387.7635857006844, "timestamp": "2025-12-26T14:28:46.397900+00:00", "meta": {"OBJECT_NAME": "STARLINK-36139", "OBJECT_ID": "2025-288H", "EPOCH": "2025-12-26T06:00:02.999808", "MEAN_MOTION": 15.61207288, "ECCENTRICITY": 0.00010235, "INCLINATION": 43.0001, "RA_OF_ASC_NODE": 84.8939, "ARG_OF_PERICENTER": 279.7642, "MEAN_ANOMALY": 258.7794, "EPHEMERIS_TYPE": 0, "CLASSIFICATION_TYPE": "U", "NORAD_CAT_ID": 66966, "ELEMENT_SET_NO": 999, "REV_AT_EPOCH": 400, "BSTAR": -0.02559876, "MEAN_MOTION_DOT": -0.0196142, "MEAN_MOTION_DDOT": 0}, "tle": {"line1": "1 66966U 25288H   25360.25003472 -.01961420  00000+0 -25599-1 0  9992", "line2": "2 66966  43.0001  84.8939 0001023 279.7642 258.7794 15.61207288  4003"}}, "geometry": {"type": "Point", "coordinates": [86.79006137849224, 3.7134084470648747]}}, {"type": "Feature", "properties": {"norad_id": 66967, "name": "STARLINK-36136", "group": "last-30-days", "lat": 5.016801565819837, "lon": 88.19693908571924, "alt_km": 387.7201707832337, "timestamp": "2025-12-26T14:28:46.397911+00:00", "meta": {"OBJECT_NAME": "STARLINK-36136", "OBJECT_ID": "2025-288J", "EPOCH": "2025-12-26T06:00:02.999808", "MEAN_MOTION": 15.61209795, "ECCENTRICITY": 9.441e-05, "INCLINATION": 43.0003, "RA_OF_ASC_NODE": 84.8891, "ARG_OF_PERICENTER": 273.3996, "MEAN_ANOMALY": 267.0599, "EPHEMERIS_TYPE": 0, "CLASSIFICATION_TYPE": "U", "NORAD_CAT_ID": 66967, "ELEMENT_SET_NO": 999, "REV_AT_EPOCH": 400, "BSTAR": -0.02560909, "MEAN_MOTION_DOT": -0.0196223, "MEAN_MOTION_DDOT": 0}, "tle": {"line1": "1 66967U 25288J   25360.25003472 -.01962230  00000+0 -25609-1 0  9995", "line2": "2 66967  43.0003  84.8891 0000944 273.3996 267.0599 15.61209795  4007"}}, "geometry": {"type": "Point", "coordinates": [88.19693908571924, 5.016801565819837]}}, {"type": "Feature", "properties": {"norad_id": 66968, "name": "STARLINK-36152", "group": "last-30-days", "lat": 6.316973106172164, "lon": 89.60925959958278, "alt_km": 387.50094285156774, "timestamp": "2025-12-26T14:28:46.397923+00:00", "meta": {"OBJECT_NAME": "STARLINK-36152", "OBJECT_ID": "2025-288K", "EPOCH": "2025-12-26T06:00:02.999808", "MEAN_MOTION": 15.61207673, "ECCENTRICITY": 8.977e-05, "INCLINATION": 43, "RA_OF_ASC_NODE": 84.8842, "ARG_OF_PERICENTER": 277.5563, "MEAN_ANOMALY": 264.8239, "EPHEMERIS_TYPE": 0, "CLASSIFICATION_TYPE": "U", "NORAD_CAT_ID": 66968, "ELEMENT_SET_NO": 999, "REV_AT_EPOCH": 400, "BSTAR": -0.02560966, "MEAN_MOTION_DOT": -0.01962095, "MEAN_MOTION_DDOT": 0}, "tle": {"line1": "1 66968U 25288K   25360.25003472 -.01962095  00000+0 -25610-1 0  9997", "line2": "2 66968  43.0000  84.8842 0000897 277.5563 264.8239 15.61207673  4003"}}, "geometry": {"type": "Point", "coordinates": [89.60925959958278, 6.316973106172164]}}]}